start=new Date('2022-05-01T00:00:00.000Z').valueOf();
sats=[{"OBJECT_ID":"2020-073AY","NORAD_CAT_ID":"46716","APOAPSIS":"548.517","ELEMENT_SET_NO":"999","PERIOD":"95.592","GP_ID":"202391388","RA_OF_ASC_NODE":"101.9698","TLE_LINE1":"1 46716U 20073AY  22120.66710811  .00000938  00000-0  81897-4 0  9990","TLE_LINE2":"2 46716  53.0533 101.9698 0001881  52.0400 308.0759 15.06399809 84541","BSTAR":"0.00008189700000","RCS_SIZE":"LARGE","SEMIMAJOR_AXIS":"6925.349","MEAN_MOTION_DOT":"0.00000938","PERIAPSIS":"545.911","TIME_SYSTEM":"UTC","DECAY_DATE":null,"MEAN_MOTION":"15.06399809","SITE":"AFETR","REF_FRAME":"TEME","OBJECT_NAME":"STARLINK-1818","ECCENTRICITY":"0.00018810","INCLINATION":"53.0533","CENTER_NAME":"EARTH","EPHEMERIS_TYPE":"0","FILE":"3423346","LAUNCH_DATE":"2020-10-18","MEAN_MOTION_DDOT":"0.0000000000000","ARG_OF_PERICENTER":"52.0400","CLASSIFICATION_TYPE":"U","MEAN_ELEMENT_THEORY":"SGP4","OBJECT_TYPE":"PAYLOAD","MEAN_ANOMALY":"308.0759","COUNTRY_CODE":"US","REV_AT_EPOCH":"8454","EPOCH":"2022-04-30T16:00:38.140704"},{"REV_AT_EPOCH":"8474","EPOCH":"2022-04-30T14:29:44.450880","ARG_OF_PERICENTER":"59.0825","CLASSIFICATION_TYPE":"U","MEAN_ANOMALY":"301.0327","OBJECT_TYPE":"PAYLOAD","MEAN_ELEMENT_THEORY":"SGP4","COUNTRY_CODE":"US","INCLINATION":"53.0559","CENTER_NAME":"EARTH","EPHEMERIS_TYPE":"0","LAUNCH_DATE":"2020-10-18","FILE":"3423346","MEAN_MOTION_DDOT":"0.0000000000000","SITE":"AFETR","REF_FRAME":"TEME","OBJECT_NAME":"STARLINK-1820","ECCENTRICITY":"0.00016680","SEMIMAJOR_AXIS":"6925.363","MEAN_MOTION_DOT":"-0.00000033","PERIAPSIS":"546.073","TIME_SYSTEM":"UTC","DECAY_DATE":null,"MEAN_MOTION":"15.06395209","BSTAR":"0.00001668300000","TLE_LINE2":"2 46717  53.0559  87.2490 0001668  59.0825 301.0327 15.06395209 84743","RCS_SIZE":"LARGE","PERIOD":"95.592","ELEMENT_SET_NO":"999","GP_ID":"202390136","RA_OF_ASC_NODE":"87.2490","TLE_LINE1":"1 46717U 20073AZ  22120.60398670 -.00000033  00000-0  16683-4 0  9998","OBJECT_ID":"2020-073AZ","NORAD_CAT_ID":"46717","APOAPSIS":"548.383"},{"APOAPSIS":"548.793","NORAD_CAT_ID":"46718","OBJECT_ID":"2020-073BA","TLE_LINE1":"1 46718U 20073BA  22120.64501041 -.00001818  00000-0 -10322-3 0  9997","RA_OF_ASC_NODE":"102.0581","GP_ID":"202390887","PERIOD":"95.593","ELEMENT_SET_NO":"999","RCS_SIZE":"LARGE","BSTAR":"-0.00010322000000","TLE_LINE2":"2 46718  53.0545 102.0581 0002210  53.9879 306.1315 15.06383930 84541","MEAN_MOTION":"15.06383930","TIME_SYSTEM":"UTC","DECAY_DATE":null,"PERIAPSIS":"545.732","MEAN_MOTION_DOT":"-0.00001818","SEMIMAJOR_AXIS":"6925.398","OBJECT_NAME":"STARLINK-1821","ECCENTRICITY":"0.00022100","REF_FRAME":"TEME","SITE":"AFETR","MEAN_MOTION_DDOT":"0.0000000000000","LAUNCH_DATE":"2020-10-18","FILE":"3423346","CENTER_NAME":"EARTH","EPHEMERIS_TYPE":"0","INCLINATION":"53.0545","COUNTRY_CODE":"US","MEAN_ELEMENT_THEORY":"SGP4","OBJECT_TYPE":"PAYLOAD","MEAN_ANOMALY":"306.1315","ARG_OF_PERICENTER":"53.9879","CLASSIFICATION_TYPE":"U","EPOCH":"2022-04-30T15:28:48.899424","REV_AT_EPOCH":"8454"},{"RCS_SIZE":"LARGE","TLE_LINE2":"2 46719  53.0546  67.4432 0001836  51.1266 308.9886 15.06396583 85020","BSTAR":"-0.00002388200000","SEMIMAJOR_AXIS":"6925.359","MEAN_MOTION_DOT":"-0.00000637","PERIAPSIS":"545.953","MEAN_MOTION":"15.06396583","TIME_SYSTEM":"UTC","DECAY_DATE":null,"OBJECT_ID":"2020-073BB","NORAD_CAT_ID":"46719","APOAPSIS":"548.496","ELEMENT_SET_NO":"999","PERIOD":"95.592","RA_OF_ASC_NODE":"67.4432","GP_ID":"202354774","TLE_LINE1":"1 46719U 20073BB  22120.56159841 -.00000637  00000-0 -23882-4 0  9990","ARG_OF_PERICENTER":"51.1266","CLASSIFICATION_TYPE":"U","COUNTRY_CODE":"US","MEAN_ANOMALY":"308.9886","OBJECT_TYPE":"PAYLOAD","MEAN_ELEMENT_THEORY":"SGP4","REV_AT_EPOCH":"8502","EPOCH":"2022-04-30T13:28:42.102624","SITE":"AFETR","REF_FRAME":"TEME","OBJECT_NAME":"STARLINK-1822","ECCENTRICITY":"0.00018360","EPHEMERIS_TYPE":"0","CENTER_NAME":"EARTH","INCLINATION":"53.0546","FILE":"3422880","LAUNCH_DATE":"2020-10-18","MEAN_MOTION_DDOT":"0.0000000000000"},{"TLE_LINE1":"1 46720U 20073BC  22120.89803157  .00080941  00000-0  78803-3 0  9990","GP_ID":"202391888","RA_OF_ASC_NODE":"354.8877","PERIOD":"91.979","ELEMENT_SET_NO":"999","APOAPSIS":"373.386","NORAD_CAT_ID":"46720","OBJECT_ID":"2020-073BC","TIME_SYSTEM":"UTC","DECAY_DATE":null,"MEAN_MOTION":"15.65580011","PERIAPSIS":"369.760","SEMIMAJOR_AXIS":"6749.708","MEAN_MOTION_DOT":"0.00080941","TLE_LINE2":"2 46720  53.0522 354.8877 0002686 133.6854 226.4383 15.65580011 86073","BSTAR":"0.00078803000000","RCS_SIZE":"LARGE","MEAN_MOTION_DDOT":"0.0000000000000","FILE":"3423346","LAUNCH_DATE":"2020-10-18","INCLINATION":"53.0522","EPHEMERIS_TYPE":"0","CENTER_NAME":"EARTH","OBJECT_NAME":"STARLINK-1823","ECCENTRICITY":"0.00026860","REF_FRAME":"TEME","SITE":"AFETR","EPOCH":"2022-04-30T21:33:09.927648","REV_AT_EPOCH":"8607","MEAN_ANOMALY":"226.4383","OBJECT_TYPE":"PAYLOAD","MEAN_ELEMENT_THEORY":"SGP4","COUNTRY_CODE":"US","ARG_OF_PERICENTER":"133.6854","CLASSIFICATION_TYPE":"U"},{"PERIAPSIS":"545.888","DECAY_DATE":null,"TIME_SYSTEM":"UTC","MEAN_MOTION":"15.06392047","MEAN_MOTION_DOT":"0.00001043","SEMIMAJOR_AXIS":"6925.373","TLE_LINE2":"2 46722  53.0554 101.9517 0001949  52.3160 307.8005 15.06392047 84540","BSTAR":"0.00008893700000","RCS_SIZE":"LARGE","TLE_LINE1":"1 46722U 20073BE  22120.67079419  .00001043  00000-0  88937-4 0  9990","ELEMENT_SET_NO":"999","PERIOD":"95.593","GP_ID":"202390637","RA_OF_ASC_NODE":"101.9517","NORAD_CAT_ID":"46722","APOAPSIS":"548.588","OBJECT_ID":"2020-073BE","REV_AT_EPOCH":"8454","EPOCH":"2022-04-30T16:05:56.618016","OBJECT_TYPE":"PAYLOAD","MEAN_ELEMENT_THEORY":"SGP4","MEAN_ANOMALY":"307.8005","COUNTRY_CODE":"US","ARG_OF_PERICENTER":"52.3160","CLASSIFICATION_TYPE":"U","FILE":"3423346","LAUNCH_DATE":"2020-10-18","MEAN_MOTION_DDOT":"0.0000000000000","INCLINATION":"53.0554","CENTER_NAME":"EARTH","EPHEMERIS_TYPE":"0","OBJECT_NAME":"STARLINK-1825","ECCENTRICITY":"0.00019490","SITE":"AFETR","REF_FRAME":"TEME"},{"SEMIMAJOR_AXIS":"6925.379","MEAN_MOTION_DOT":"-0.00001521","PERIAPSIS":"546.073","MEAN_MOTION":"15.06390078","DECAY_DATE":null,"TIME_SYSTEM":"UTC","RCS_SIZE":"LARGE","BSTAR":"-0.00008323800000","TLE_LINE2":"2 46723  53.0555  61.2462 0001691  59.0189 301.0966 15.06390078 85138","ELEMENT_SET_NO":"999","PERIOD":"95.593","RA_OF_ASC_NODE":"61.2462","GP_ID":"202390387","TLE_LINE1":"1 46723U 20073BF  22120.82929052 -.00001521  00000-0 -83238-4 0  9997","OBJECT_ID":"2020-073BF","NORAD_CAT_ID":"46723","APOAPSIS":"548.415","REV_AT_EPOCH":"8513","EPOCH":"2022-04-30T19:54:10.700928","CLASSIFICATION_TYPE":"U","ARG_OF_PERICENTER":"59.0189","COUNTRY_CODE":"US","OBJECT_TYPE":"PAYLOAD","MEAN_ELEMENT_THEORY":"SGP4","MEAN_ANOMALY":"301.0966","CENTER_NAME":"EARTH","EPHEMERIS_TYPE":"0","INCLINATION":"53.0555","FILE":"3423346","LAUNCH_DATE":"2020-10-18","MEAN_MOTION_DDOT":"0.0000000000000","SITE":"AFETR","REF_FRAME":"TEME","OBJECT_NAME":"STARLINK-1826","ECCENTRICITY":"0.00016910"},{"INCLINATION":"53.0536","EPHEMERIS_TYPE":"0","CENTER_NAME":"EARTH","MEAN_MOTION_DDOT":"0.0000000000000","FILE":"3422880","LAUNCH_DATE":"2020-10-18","REF_FRAME":"TEME","SITE":"AFETR","OBJECT_NAME":"STARLINK-1828","ECCENTRICITY":"0.00023380","EPOCH":"2022-04-30T10:26:16.124640","REV_AT_EPOCH":"8451","CLASSIFICATION_TYPE":"U","ARG_OF_PERICENTER":"50.3294","OBJECT_TYPE":"PAYLOAD","MEAN_ELEMENT_THEORY":"SGP4","MEAN_ANOMALY":"309.7901","COUNTRY_CODE":"US","GP_ID":"202355274","RA_OF_ASC_NODE":"103.0017","ELEMENT_SET_NO":"999","PERIOD":"95.592","TLE_LINE1":"1 46725U 20073BH  22120.43490885  .00011705  00000-0  80338-3 0  9993","OBJECT_ID":"2020-073BH","APOAPSIS":"548.835","NORAD_CAT_ID":"46725","SEMIMAJOR_AXIS":"6925.351","MEAN_MOTION_DOT":"0.00011705","TIME_SYSTEM":"UTC","DECAY_DATE":null,"MEAN_MOTION":"15.06399352","PERIAPSIS":"545.596","BSTAR":"0.00080338000000","TLE_LINE2":"2 46725  53.0536 103.0017 0002338  50.3294 309.7901 15.06399352 84519","RCS_SIZE":"LARGE"},{"MEAN_MOTION_DDOT":"0.0000000000000","FILE":"3422880","LAUNCH_DATE":"2020-10-18","INCLINATION":"53.0531","EPHEMERIS_TYPE":"0","CENTER_NAME":"EARTH","OBJECT_NAME":"STARLINK-1829","ECCENTRICITY":"0.00031770","REF_FRAME":"TEME","SITE":"AFETR","EPOCH":"2022-04-30T09:27:12.044160","REV_AT_EPOCH":"8471","MEAN_ANOMALY":"321.0351","OBJECT_TYPE":"PAYLOAD","MEAN_ELEMENT_THEORY":"SGP4","COUNTRY_CODE":"US","CLASSIFICATION_TYPE":"U","ARG_OF_PERICENTER":"39.0867","TLE_LINE1":"1 46726U 20073BJ  22120.39388940  .00001318  00000-0  10742-3 0  9998","GP_ID":"202355020","RA_OF_ASC_NODE":"88.1985","ELEMENT_SET_NO":"999","PERIOD":"95.592","APOAPSIS":"549.416","NORAD_CAT_ID":"46726","OBJECT_ID":"2020-073BJ","DECAY_DATE":null,"TIME_SYSTEM":"UTC","MEAN_MOTION":"15.06399255","PERIAPSIS":"545.016","SEMIMAJOR_AXIS":"6925.351","MEAN_MOTION_DOT":"0.00001318","BSTAR":"0.00010742000000","TLE_LINE2":"2 46726  53.0531  88.1985 0003177  39.0867 321.0351 15.06399255 84714","RCS_SIZE":"LARGE"},{"OBJECT_NAME":"STARLINK-1830","ECCENTRICITY":"0.00015950","REF_FRAME":"TEME","SITE":"AFETR","MEAN_MOTION_DDOT":"0.0000000000000","LAUNCH_DATE":"2020-10-18","FILE":"3422880","EPHEMERIS_TYPE":"0","CENTER_NAME":"EARTH","INCLINATION":"53.0563","COUNTRY_CODE":"US","MEAN_ANOMALY":"310.0459","OBJECT_TYPE":"PAYLOAD","MEAN_ELEMENT_THEORY":"SGP4","ARG_OF_PERICENTER":"50.0670","CLASSIFICATION_TYPE":"U","EPOCH":"2022-04-30T13:10:46.593696","REV_AT_EPOCH":"8509","APOAPSIS":"548.338","NORAD_CAT_ID":"46727","OBJECT_ID":"2020-073BK","TLE_LINE1":"1 46727U 20073BK  22120.54915039  .00000794  00000-0  72196-4 0  9990","RA_OF_ASC_NODE":"62.4989","GP_ID":"202354273","ELEMENT_SET_NO":"999","PERIOD":"95.593","RCS_SIZE":"LARGE","TLE_LINE2":"2 46727  53.0563  62.4989 0001595  50.0670 310.0459 15.06393604 85097","BSTAR":"0.00007219600000","MEAN_MOTION":"15.06393604","TIME_SYSTEM":"UTC","DECAY_DATE":null,"PERIAPSIS":"546.129","MEAN_MOTION_DOT":"0.00000794","SEMIMAJOR_AXIS":"6925.368"}];
